     2.100          NAVIGATION                              RINEX VERSION / TYPE
fic2rin                                 12/28/2016 02:56:25 PGM / RUN BY / DATE
                                                            END OF HEADER
24 16 12 27  8  0  0.0 -.281506218016D-04 -.568434188608D-12  .000000000000D+00
     .880000000000D+02  .118625000000D+03  .456590447396D-08  .149142122402D+01
     .612251460552D-05  .526974187233D-02  .842846930027D-05  .515371865463D+04
     .201600000000D+06 -.111758708954D-07 -.293595973743D+01  .558793544769D-07
     .947474463874D+00  .209250000000D+03  .418427266889D+00 -.811819529828D-08
     .582167106740D-10  .100000000000D+01  .192900000000D+04  .000000000000D+00
     .240000000000D+01  .000000000000D+00  .232830643654D-08  .880000000000D+02
     .194406000000D+06  .400000000000D+01
25 16 12 27  8  0  0.0 -.307070557028D-03 -.682121026330D-11  .000000000000D+00
     .790000000000D+02  .637500000000D+01  .452375986133D-08 -.543507619937D+00
     .441446900368D-06  .586588215083D-02  .108219683170D-05  .515365126801D+04
     .201600000000D+06  .428408384323D-07 -.185771690923D+01  .465661287308D-07
     .977696094110D+00  .369187500000D+03  .751564202214D+00 -.837963475971D-08
     .660741808263D-10  .100000000000D+01  .192900000000D+04  .000000000000D+00
     .240000000000D+01  .000000000000D+00  .558793544769D-08  .790000000000D+02
     .194406000000D+06  .400000000000D+01
26 16 12 27  8  0  0.0 -.513877719641D-03 -.261479726760D-11  .000000000000D+00
     .140000000000D+02  .142812500000D+02  .485627371186D-08 -.907594404173D+00
     .609084963799D-06  .146532745566D-02  .674277544022D-06  .515362835693D+04
     .201600000000D+06 -.167638063431D-07 -.187047155215D+01 -.353902578354D-07
     .959566027468D+00  .363781250000D+03 -.173780372181D+00 -.853928426689D-08
     .803604901941D-10  .100000000000D+01  .192900000000D+04  .000000000000D+00
     .240000000000D+01  .000000000000D+00  .745058059692D-08  .140000000000D+02
     .194406000000D+06  .400000000000D+01
28 16 12 27  8  0  0.0  .577477272600D-03  .284217094304D-11  .000000000000D+00
     .410000000000D+02  .596875000000D+01  .404052544696D-08 -.206560200386D+01
     .685453414917D-06  .201310091652D-01  .322237610817D-06  .515363855553D+04
     .201600000000D+06  .307336449623D-06 -.178066609802D+01  .219792127609D-06
     .988866588388D+00  .382812500000D+03 -.158781487559D+01 -.785854162552D-08
     .129291099779D-09  .100000000000D+01  .192900000000D+04  .000000000000D+00
     .340000000000D+01  .000000000000D+00 -.111758708954D-07  .410000000000D+02
     .194406000000D+06  .400000000000D+01
29 16 12 27  8  0  0.0  .636533368379D-03 -.216004991671D-11  .000000000000D+00
     .510000000000D+02 -.111531250000D+03  .409124184522D-08 -.657098466011D+00
    -.577047467232D-05  .545516959392D-03  .807829201221D-05  .515370054626D+04
     .201600000000D+06  .745058059692D-08 -.755898513956D+00  .167638063431D-07
     .979752036754D+00  .236000000000D+03 -.196669479570D+00 -.783032616451D-08
    -.141791620476D-09  .100000000000D+01  .192900000000D+04  .000000000000D+00
     .240000000000D+01  .000000000000D+00 -.102445483208D-07  .510000000000D+02
     .194406000000D+06  .400000000000D+01
30 16 12 27  8  0  0.0  .159691087902D-03  .454747350886D-12  .000000000000D+00
     .160000000000D+02  .115218750000D+03  .454483216765D-08  .580347057076D+00
     .604800879955D-05  .235190731473D-02  .817328691483D-05  .515373848152D+04
     .201600000000D+06  .521540641785D-07 -.284406384505D+01  .558793544769D-08
     .950159171635D+00  .215437500000D+03  .311917520123D+01 -.810212320024D-08
     .221437795202D-09  .100000000000D+01  .192900000000D+04  .000000000000D+00
     .240000000000D+01  .000000000000D+00  .372529029846D-08  .160000000000D+02
     .194406000000D+06  .400000000000D+01
31 16 12 27  8  0  0.0  .228670425713D-03 -.227373675443D-11  .000000000000D+00
     .200000000000D+01  .120906250000D+03  .412338604129D-08  .409739078340D+00
     .633671879768D-05  .855754467193D-02  .786222517490D-05  .515362646866D+04
     .201600000000D+06  .150874257088D-06 -.287486839840D+01 -.100582838058D-06
     .969193583512D+00  .229468750000D+03 -.323568146163D+00 -.800319050787D-08
     .241081470582D-09  .100000000000D+01  .192900000000D+04  .000000000000D+00
     .240000000000D+01  .000000000000D+00 -.135041773319D-07  .200000000000D+01
     .194406000000D+06  .400000000000D+01
32 16 12 27  8  0  0.0 -.257376115769D-03 -.154614099301D-10  .000000000000D+00
     .400000000000D+01  .906250000000D+00  .436339603867D-08 -.211725088841D+01
     .150874257088D-06  .618159887381D-03  .977516174316D-05  .515367762184D+04
     .201600000000D+06 -.316649675369D-07  .232243256310D+01 -.130385160446D-07
     .958509300297D+00  .190500000000D+03 -.271216062641D+01 -.776746640330D-08
    -.519664503255D-09  .100000000000D+01  .192900000000D+04  .000000000000D+00
     .240000000000D+01  .000000000000D+00  .465661287308D-09  .400000000000D+01
     .194406000000D+06  .400000000000D+01
14 16 12 27  7 59 44.0 -.513806007802D-04 -.170530256582D-11  .000000000000D+00
     .180000000000D+02  .127812500000D+02  .413374361559D-08  .295324772210D+01
     .646337866783D-06  .863639614545D-02  .104010105133D-04  .515361492157D+04
     .201584000000D+06  .726431608200D-07  .240547950832D+01 -.782310962677D-07
     .962756893180D+00  .177437500000D+03 -.194968937513D+01 -.754710008130D-08
    -.504306720685D-09  .100000000000D+01  .192900000000D+04  .000000000000D+00
     .240000000000D+01  .000000000000D+00 -.931322574615D-08  .180000000000D+02
     .194706000000D+06  .400000000000D+01
 1 16 12 27 10  0  0.0  .449554063380D-04  .125055521494D-11  .000000000000D+00
     .880000000000D+02 -.133437500000D+02  .431625121776D-08  .226670370974D+01
    -.672414898872D-06  .607097870670D-02  .105295330286D-04  .515369810486D+04
     .208800000000D+06 -.139698386192D-06  .240180520963D+00 -.167638063431D-07
     .966455599201D+00  .178531250000D+03  .555716800681D+00 -.770174938020D-08
     .547879964257D-09  .100000000000D+01  .192900000000D+04  .000000000000D+00
     .240000000000D+01  .000000000000D+00  .512227416039D-08  .880000000000D+02
     .201606000000D+06  .400000000000D+01
 2 16 12 27 10  0  0.0  .503750517964D-03 -.625277607469D-11  .000000000000D+00
     .270000000000D+02 -.310937500000D+02  .460912055980D-08  .271643964716D+01
    -.163726508617D-05  .163633606862D-01  .104606151581D-04  .515370574379D+04
     .208800000000D+06  .782310962677D-07  .190062708920D+00 -.247731804848D-06
     .945338799510D+00  .164531250000D+03 -.205003993045D+01 -.763710383031D-08
     .404659712844D-09  .100000000000D+01  .192900000000D+04  .000000000000D+00
     .240000000000D+01  .000000000000D+00 -.200234353542D-07  .270000000000D+02
     .201606000000D+06  .400000000000D+01
 3 16 12 27 10  0  0.0 -.104134436697D-03 -.125055521494D-11  .000000000000D+00
     .370000000000D+02  .284375000000D+01  .498770775805D-08  .907967082553D+00
     .100582838058D-06  .414813519455D-03  .499747693539D-05  .515354252625D+04
     .208800000000D+06  .000000000000D+00  .128205513257D+01  .223517417908D-07
     .959088106761D+00  .280437500000D+03  .863670547779D+00 -.817462622028D-08
     .135719938995D-10  .100000000000D+01  .192900000000D+04  .000000000000D+00
     .340000000000D+01  .000000000000D+00  .186264514923D-08  .370000000000D+02
     .201606000000D+06  .400000000000D+01
 4 16 12 27 10  0  0.0  .371830537915D-05 -.118234311230D-10  .000000000000D+00
     .140000000000D+02 -.178750000000D+02  .474769776067D-08  .200614934959D+01
    -.109523534775D-05  .131814362248D-01  .106729567051D-04  .515369655037D+04
     .208800000000D+06 -.149011611938D-07  .204609231916D+00 -.286847352982D-06
     .944515085930D+00  .162687500000D+03  .120664182554D+01 -.785997025645D-08
     .536093759028D-09  .100000000000D+01  .192900000000D+04  .000000000000D+00
     .240000000000D+01  .630000000000D+02 -.651925802231D-08  .140000000000D+02
     .201606000000D+06  .400000000000D+01
 5 16 12 27 10  0  0.0 -.697108916938D-04  .216004991671D-11  .000000000000D+00
     .410000000000D+02  .559375000000D+01  .525521890096D-08 -.108338278064D+01
     .299885869026D-06  .491230399348D-02  .472925603390D-05  .515364706802D+04
     .208800000000D+06  .968575477600D-07  .126726588660D+01  .745058059692D-08
     .946097887220D+00  .280468750000D+03  .566600778065D+00 -.835570519152D-08
     .642883921553D-10  .100000000000D+01  .192900000000D+04  .000000000000D+00
     .240000000000D+01  .000000000000D+00 -.107102096081D-07  .410000000000D+02
     .201606000000D+06  .400000000000D+01
 6 16 12 27 10  0  0.0  .291370786726D-03  .500222085975D-11  .000000000000D+00
     .670000000000D+02 -.247187500000D+02  .431910847963D-08  .269202364244D+01
    -.111944973469D-05  .459771486931D-03  .102818012238D-04  .515359028053D+04
     .208800000000D+06  .689178705215D-07  .231796597430D+00 -.558793544769D-07
     .966257537648D+00  .182468750000D+03 -.149012584810D+01 -.775710882900D-08
     .444661379074D-09  .100000000000D+01  .192900000000D+04  .000000000000D+00
     .240000000000D+01  .000000000000D+00  .419095158577D-08  .670000000000D+02
     .201606000000D+06  .400000000000D+01
 7 16 12 27 10  0  0.0  .398295931518D-03 -.352429196937D-11  .000000000000D+00
     .111000000000D+03  .125156250000D+03  .420053211188D-08  .163361792194D+01
     .654160976410D-05  .100487784948D-01  .890716910362D-05  .515362377357D+04
     .208800000000D+06 -.130385160446D-06 -.288520807956D+01  .106170773506D-06
     .964414089706D+00  .209656250000D+03 -.261328363775D+01 -.798211820155D-08
     .885751180806D-10  .100000000000D+01  .192900000000D+04  .000000000000D+00
     .340000000000D+01  .000000000000D+00 -.111758708954D-07  .111000000000D+03
     .201606000000D+06  .400000000000D+01
